OBJECT_NAME,OBJECT_ID,EPOCH,MEAN_MOTION,ECCENTRICITY,INCLINATION,RA_OF_ASC_NODE,ARG_OF_PERICENTER,MEAN_ANOMALY,EPHEMERIS_TYPE,CLASSIFICATION_TYPE,NORAD_CAT_ID,ELEMENT_SET_NO,REV_AT_EPOCH,BSTAR,MEAN_MOTION_DOT,MEAN_MOTION_DDOT
SL-14 R/B,1990-018B,2026-06-16T21:01:59.162880,14.82215981,.0017426,82.5209,130.3981,122.6675,237.6223,0,U,20511,999,93727,.36688E-4,.317E-5,0
HST,1990-037B,2026-06-16T03:57:59.736672,15.30736864,.00018526,28.4719,87.5586,131.7056,228.3698,0,U,20580,999,78841,.168413E-3,.5381E-4,0
SL-16 R/B,1990-046B,2026-06-16T21:03:34.144128,14.15026551,.0013366,70.9998,89.5984,162.2249,197.9344,0,U,20625,999,86242,.88441E-4,.124E-5,0
COSMOS 2084,1990-055A,2026-06-16T20:41:42.796896,15.06114812,.000558,62.7899,357.1999,278.3631,81.6837,0,U,20663,999,95125,.13175E-3,.1734E-4,0
SL-6 R/B(2),1990-055D,2026-06-16T15:36:34.057152,15.04001570,.0040577,62.7824,277.2032,5.0638,355.0864,0,U,20666,999,95307,.10535E-3,.128E-4,0
SL-8 R/B,1990-078B,2026-06-16T17:25:00.366816,14.92300247,.0351076,82.9010,162.0620,40.0237,322.6292,0,U,20775,999,82405,.5967E-3,.21177E-3,0
SL-8 R/B,1991-006B,2026-06-16T18:32:17.259936,13.77505846,.0023686,82.9424,96.3422,115.6625,303.7838,0,U,21088,999,77771,.39616E-4,.55E-6,0
OKEAN-3,1991-039A,2026-06-16T17:45:17.627904,15.05321980,.0014125,82.5157,240.8149,359.7673,0.3545,0,U,21397,999,87993,.16592E-3,.2406E-4,0
COSMOS 2151,1991-042A,2026-06-16T20:37:54.540192,15.00437682,.0013822,82.4960,347.9971,85.0205,275.2597,0,U,21422,999,87806,.10809E-3,.1389E-4,0
SL-14 R/B,1991-042B,2026-06-16T16:19:35.563008,14.81902193,.0015418,82.4926,127.3709,276.6953,83.2506,0,U,21423,999,86773,.3458E-4,.297E-5,0
ERS-1,1991-050A,2026-06-16T19:36:52.511616,14.39517614,.0030711,98.7797,188.5063,268.0822,91.6847,0,U,21574,999,82999,.91893E-4,.241E-5,0
ARIANE 40 R/B,1991-050F,2026-06-16T16:51:19.672992,14.42956828,.0004236,98.1876,216.1380,122.6310,237.5290,0,U,21610,999,83327,.80778E-4,.229E-5,0
INTERCOSMOS 25,1991-086A,2026-06-16T16:46:43.802112,12.12194972,.1484036,82.6052,250.1052,263.4479,79.6132,0,U,21819,999,50868,.13569E-3,.68E-5,0
SL-8 R/B,1992-008B,2026-06-16T20:34:57.574848,13.75976881,.0033821,82.9262,194.0326,215.6293,317.5528,0,U,21876,999,72305,.12464E-3,.136E-5,0
SL-8 R/B,1992-020B,2026-06-16T18:16:35.904288,13.75548799,.0029756,82.9305,80.1735,23.7521,29.5554,0,U,21938,999,71475,.60752E-4,.74E-6,0
USA 81,1992-023A,2026-06-16T17:11:02.408640,14.32398074,.000275,85.0075,74.2794,84.8765,275.2741,0,U,21949,999,10896,.47988E-4,.15E-5,0
COSMOS 2219,1992-076A,2026-06-16T18:23:19.356864,14.14098738,.0016583,71.0579,170.9519,44.8439,315.4020,0,U,22219,999,73238,.16203E-3,.262E-5,0
SL-16 R/B,1992-076B,2026-06-16T18:04:06.957120,14.16872049,.0014657,71.0005,339.6961,299.2049,149.2301,0,U,22220,999,73586,.11617E-3,.185E-5,0
COSMOS 2221,1992-080A,2026-06-16T12:53:38.124384,14.96531580,.0013216,82.5031,184.3874,214.5560,145.4804,0,U,22236,999,79557,.10073E-3,.1173E-4,0
SL-16 R/B,1992-093B,2026-06-16T09:27:56.757024,14.15461601,.00040029,71.0197,157.0557,189.9480,170.1564,0,U,22285,999,72712,-.13061037E-3,-.303E-5,0
COSMOS 2228,1992-094A,2026-06-16T19:41:24.453888,14.97585555,.0016929,82.5173,142.3941,333.6679,26.3681,0,U,22286,999,79089,.14702E-3,.1747E-4,0
SL-16 R/B,1993-016B,2026-06-16T20:51:34.322400,14.15314041,.0010219,71.0085,6.8755,183.9713,176.1330,0,U,22566,999,71620,.16435E-3,.273E-5,0
COSMOS 2242,1993-024A,2026-06-16T17:06:30.417984,14.96901993,.0015391,82.5179,171.9967,337.9851,22.0708,0,U,22626,999,79520,.11617E-3,.1362E-4,0
SL-16 R/B,1993-059B,2026-06-16T17:07:28.941888,14.17248286,.0015199,70.9887,162.3025,54.7425,305.5119,0,U,22803,999,69356,.19052E-5,-.44E-6,0
ARIANE 40 R/B,1993-061H,2026-06-16T17:11:54.201120,14.32907808,.0010476,98.4819,234.5834,357.5407,2.5724,0,U,22830,999,70828,.72656E-4,.155E-5,0
COSMOS 2278,1994-023A,2026-06-16T18:02:40.339392,14.14398046,.0010619,71.0548,327.8355,243.7555,116.2476,0,U,23087,999,65881,.7736E-4,.101E-5,0
SL-16 R/B,1994-023B,2026-06-16T13:00:06.768000,14.15024921,.0002792,70.9994,223.2870,187.1392,172.9692,0,U,23088,999,66007,.1694E-3,.28E-5,0
SL-16 R/B,1994-074B,2026-06-16T19:55:27.723072,14.79502052,.0005123,97.6990,194.5660,255.0342,278.0092,0,U,23343,999,70190,.50697E-4,.33E-5,0
SL-16 R/B,1994-077B,2026-06-16T15:01:33.813120,14.15571992,.0002899,70.9809,144.3427,328.4606,31.6343,0,U,23405,999,63023,.57637E-4,.65E-6,0
ARIANE 40+ R/B,1995-021B,2026-06-16T17:12:12.661344,14.39833120,.0006415,98.4412,237.7985,195.0046,277.5664,0,U,23561,999,63349,.82156E-4,.214E-5,0
SL-16 R/B,1995-058B,2026-06-16T20:23:47.160960,14.15508308,.0013754,71.0220,332.0666,320.9664,39.0466,0,U,23705,999,58188,.17133E-3,.288E-5,0
