{
  "version": 1,
  "fetchedAt": "2026-06-17T01:49:57.093Z",
  "source": "celestrak-gp",
  "counts": {
    "station": 25,
    "satellite": 400,
    "debris": 250
  },
  "objects": [
    {
      "id": "20511",
      "name": "SL-14 R/B",
      "noradId": 20511,
      "line1": "1 20511U 90018B   26167.87637920  .00000317  00000+0  36688-4 0  9996",
      "line2": "2 20511  82.5209 130.3981 0017426 122.6675 237.6223 14.82215981937275",
      "category": "satellite"
    },
    {
      "id": "20580",
      "name": "HST",
      "noradId": 20580,
      "line1": "1 20580U 90037B   26167.16527473  .00005381  00000+0  16841-3 0  9990",
      "line2": "2 20580  28.4719  87.5586 0001852 131.7056 228.3698 15.30736864788415",
      "category": "satellite"
    },
    {
      "id": "20625",
      "name": "SL-16 R/B",
      "noradId": 20625,
      "line1": "1 20625U 90046B   26167.87747852  .00000124  00000+0  88441-4 0  9999",
      "line2": "2 20625  70.9998  89.5984 0013366 162.2249 197.9344 14.15026551862426",
      "category": "satellite"
    },
    {
      "id": "20663",
      "name": "COSMOS 2084",
      "noradId": 20663,
      "line1": "1 20663U 90055A   26167.86230089  .00001734  00000+0  13175-3 0  9998",
      "line2": "2 20663  62.7899 357.1999 0005580 278.3631  81.6837 15.06114812951255",
      "category": "satellite"
    },
    {
      "id": "20666",
      "name": "SL-6 R/B(2)",
      "noradId": 20666,
      "line1": "1 20666U 90055D   26167.65039418  .00001280  00000+0  10535-3 0  9994",
      "line2": "2 20666  62.7824 277.2032 0040577   5.0638 355.0864 15.04001570953077",
      "category": "satellite"
    },
    {
      "id": "20775",
      "name": "SL-8 R/B",
      "noradId": 20775,
      "line1": "1 20775U 90078B   26167.72569869  .00021177  00000+0  59670-3 0  9996",
      "line2": "2 20775  82.9010 162.0620 0351076  40.0237 322.6292 14.92300247824055",
      "category": "satellite"
    },
    {
      "id": "21088",
      "name": "SL-8 R/B",
      "noradId": 21088,
      "line1": "1 21088U 91006B   26167.77242199  .00000055  00000+0  39616-4 0  9996",
      "line2": "2 21088  82.9424  96.3422 0023686 115.6625 303.7838 13.77505846777714",
      "category": "satellite"
    },
    {
      "id": "21397",
      "name": "OKEAN-3",
      "noradId": 21397,
      "line1": "1 21397U 91039A   26167.73978736  .00002406  00000+0  16592-3 0  9993",
      "line2": "2 21397  82.5157 240.8149 0014125 359.7673   0.3545 15.05321980879930",
      "category": "satellite"
    },
    {
      "id": "21422",
      "name": "COSMOS 2151",
      "noradId": 21422,
      "line1": "1 21422U 91042A   26167.85965903  .00001389  00000+0  10809-3 0  9995",
      "line2": "2 21422  82.4960 347.9971 0013822  85.0205 275.2597 15.00437682878060",
      "category": "satellite"
    },
    {
      "id": "21423",
      "name": "SL-14 R/B",
      "noradId": 21423,
      "line1": "1 21423U 91042B   26167.68027272  .00000297  00000+0  34580-4 0  9995",
      "line2": "2 21423  82.4926 127.3709 0015418 276.6953  83.2506 14.81902193867734",
      "category": "satellite"
    },
    {
      "id": "21574",
      "name": "ERS-1",
      "noradId": 21574,
      "line1": "1 21574U 91050A   26167.81727444  .00000241  00000+0  91893-4 0  9993",
      "line2": "2 21574  98.7797 188.5063 0030711 268.0822  91.6847 14.39517614829992",
      "category": "satellite"
    },
    {
      "id": "21610",
      "name": "ARIANE 40 R/B",
      "noradId": 21610,
      "line1": "1 21610U 91050F   26167.70231103  .00000229  00000+0  80778-4 0  9990",
      "line2": "2 21610  98.1876 216.1380 0004236 122.6310 237.5290 14.42956828833272",
      "category": "satellite"
    },
    {
      "id": "21819",
      "name": "INTERCOSMOS 25",
      "noradId": 21819,
      "line1": "1 21819U 91086A   26167.69911808  .00000680  00000+0  13569-3 0  9999",
      "line2": "2 21819  82.6052 250.1052 1484036 263.4479  79.6132 12.12194972508685",
      "category": "satellite"
    },
    {
      "id": "21876",
      "name": "SL-8 R/B",
      "noradId": 21876,
      "line1": "1 21876U 92008B   26167.85761082  .00000136  00000+0  12464-3 0  9991",
      "line2": "2 21876  82.9262 194.0326 0033821 215.6293 317.5528 13.75976881723058",
      "category": "satellite"
    },
    {
      "id": "21938",
      "name": "SL-8 R/B",
      "noradId": 21938,
      "line1": "1 21938U 92020B   26167.76152667  .00000074  00000+0  60752-4 0  9992",
      "line2": "2 21938  82.9305  80.1735 0029756  23.7521  29.5554 13.75548799714757",
      "category": "satellite"
    },
    {
      "id": "21949",
      "name": "USA 81",
      "noradId": 21949,
      "line1": "1 21949U 92023A   26167.71600010  .00000150  00000+0  47988-4 0  9993",
      "line2": "2 21949  85.0075  74.2794 0002750  84.8765 275.2741 14.32398074108960",
      "category": "satellite"
    },
    {
      "id": "22219",
      "name": "COSMOS 2219",
      "noradId": 22219,
      "line1": "1 22219U 92076A   26167.76619626  .00000262  00000+0  16203-3 0  9999",
      "line2": "2 22219  71.0579 170.9519 0016583  44.8439 315.4020 14.14098738732387",
      "category": "satellite"
    },
    {
      "id": "22220",
      "name": "SL-16 R/B",
      "noradId": 22220,
      "line1": "1 22220U 92076B   26167.75285830  .00000185  00000+0  11617-3 0  9994",
      "line2": "2 22220  71.0005 339.6961 0014657 299.2049 149.2301 14.16872049735869",
      "category": "satellite"
    },
    {
      "id": "22236",
      "name": "COSMOS 2221",
      "noradId": 22236,
      "line1": "1 22236U 92080A   26167.53724681  .00001173  00000+0  10073-3 0  9997",
      "line2": "2 22236  82.5031 184.3874 0013216 214.5560 145.4804 14.96531580795578",
      "category": "satellite"
    },
    {
      "id": "22285",
      "name": "SL-16 R/B",
      "noradId": 22285,
      "line1": "1 22285U 92093B   26167.39440691 -.00000303  00000+0 -13061-3 0  9991",
      "line2": "2 22285  71.0197 157.0557 0004002 189.9480 170.1564 14.15461601727123",
      "category": "satellite"
    },
    {
      "id": "22286",
      "name": "COSMOS 2228",
      "noradId": 22286,
      "line1": "1 22286U 92094A   26167.82042192  .00001747  00000+0  14702-3 0  9999",
      "line2": "2 22286  82.5173 142.3941 0016929 333.6679  26.3681 14.97585555790899",
      "category": "satellite"
    },
    {
      "id": "22566",
      "name": "SL-16 R/B",
      "noradId": 22566,
      "line1": "1 22566U 93016B   26167.86914725  .00000273  00000+0  16435-3 0  9997",
      "line2": "2 22566  71.0085   6.8755 0010219 183.9713 176.1330 14.15314041716201",
      "category": "satellite"
    },
    {
      "id": "22626",
      "name": "COSMOS 2242",
      "noradId": 22626,
      "line1": "1 22626U 93024A   26167.71285206  .00001362  00000+0  11617-3 0  9999",
      "line2": "2 22626  82.5179 171.9967 0015391 337.9851  22.0708 14.96901993795200",
      "category": "satellite"
    },
    {
      "id": "22803",
      "name": "SL-16 R/B",
      "noradId": 22803,
      "line1": "1 22803U 93059B   26167.71352942 -.00000044  00000+0  19052-5 0  9996",
      "line2": "2 22803  70.9887 162.3025 0015199  54.7425 305.5119 14.17248286693563",
      "category": "satellite"
    },
    {
      "id": "22830",
      "name": "ARIANE 40 R/B",
      "noradId": 22830,
      "line1": "1 22830U 93061H   26167.71659955  .00000155  00000+0  72656-4 0  9993",
      "line2": "2 22830  98.4819 234.5834 0010476 357.5407   2.5724 14.32907808708281",
      "category": "satellite"
    },
    {
      "id": "23087",
      "name": "COSMOS 2278",
      "noradId": 23087,
      "line1": "1 23087U 94023A   26167.75185578  .00000101  00000+0  77360-4 0  9994",
      "line2": "2 23087  71.0548 327.8355 0010619 243.7555 116.2476 14.14398046658813",
      "category": "satellite"
    },
    {
      "id": "23088",
      "name": "SL-16 R/B",
      "noradId": 23088,
      "line1": "1 23088U 94023B   26167.54174500  .00000280  00000+0  16940-3 0  9999",
      "line2": "2 23088  70.9994 223.2870 0002792 187.1392 172.9692 14.15024921660070",
      "category": "satellite"
    },
    {
      "id": "23343",
      "name": "SL-16 R/B",
      "noradId": 23343,
      "line1": "1 23343U 94074B   26167.83018198  .00000330  00000+0  50697-4 0  9995",
      "line2": "2 23343  97.6990 194.5660 0005123 255.0342 278.0092 14.79502052701900",
      "category": "satellite"
    },
    {
      "id": "23405",
      "name": "SL-16 R/B",
      "noradId": 23405,
      "line1": "1 23405U 94077B   26167.62608580  .00000065  00000+0  57637-4 0  9990",
      "line2": "2 23405  70.9809 144.3427 0002899 328.4606  31.6343 14.15571992630239",
      "category": "satellite"
    },
    {
      "id": "23561",
      "name": "ARIANE 40+ R/B",
      "noradId": 23561,
      "line1": "1 23561U 95021B   26167.71681321  .00000214  00000+0  82156-4 0  9997",
      "line2": "2 23561  98.4412 237.7985 0006415 195.0046 277.5664 14.39833120633495",
      "category": "satellite"
    },
    {
      "id": "23705",
      "name": "SL-16 R/B",
      "noradId": 23705,
      "line1": "1 23705U 95058B   26167.84985140  .00000288  00000+0  17133-3 0  9990",
      "line2": "2 23705  71.0220 332.0666 0013754 320.9664  39.0466 14.15508308581880",
      "category": "satellite"
    }
  ]
}